ORBCOMM FM24            
1 25478U 98053D   25263.12525878  .00001049  00000+0  38776-3 0  9994
2 25478  45.0072 178.8852 0003835 343.0935  16.9785 14.38307225411110
ORBCOMM FM25            
1 25479U 98053E   25263.09850690  .00001151  00000+0  42129-3 0  9995
2 25479  45.0063 177.2966 0006039 355.2058   4.8732 14.38277708411402
ORBCOMM FM26            
1 25480U 98053F   25263.10355319  .00000896  00000+0  34466-3 0  9997
2 25480  45.0060 174.4243 0007541  10.9817 349.1194 14.37304654411301
ORBCOMM FM27            
1 25481U 98053G   25263.08413712  .00001140  00000+0  41747-3 0  9990
2 25481  45.0047 177.5324 0002365 345.4683  14.6097 14.38310083411330
ORBCOMM FM28            
1 25482U 98053H   25263.04058851  .00000880  00000+0  33176-3 0  9993
2 25482  45.0047 115.1093 0005264  54.7602 305.3739 14.38474279412011
ORBCOMM FM30            
1 25980U 99065A   25263.01317351  .00000899  00000+0  34472-3 0  9990
2 25980  45.0333   0.8153 0006518 140.8768 219.2552 14.37473773348091
ORBCOMM FM31            
1 25981U 99065B   25262.64311482  .00000753  00000+0  29669-3 0  9999
2 25981  45.0247 356.0353 0004770 171.4048 188.6883 14.37402527347592
ORBCOMM FM32            
1 25982U 99065C   25263.03044445  .00000969  00000+0  37520-3 0  9990
2 25982  45.0172  11.4158 0007038 158.4056 201.7090 14.36458350348232
